ONEWEB-0311             
1 49097U 21075Y   25095.02001766 -.00000014  00000+0 -69543-4 0  9994
2 49097  87.9006  93.1290 0002100 101.0703 259.0665 13.17651077176926
ONEWEB-0312             
1 49098U 21075Z   25095.26301756 -.00000007  00000+0 -51164-4 0  9995
2 49098  87.9003  93.1115 0001721 100.7535 259.3791 13.17650440176912
ONEWEB-0313             
1 49099U 21075AA  25095.04013258  .00000027  00000+0  37157-4 0  9995
2 49099  87.9002  93.1718 0002097  92.1514 267.9857 13.17645834176895
ONEWEB-0314             
1 49100U 21075AB  25094.70276534  .00000064  00000+0  13250-3 0  9996
2 49100  87.8999  93.1735 0001764 101.8981 258.2349 13.17651630175829
ONEWEB-0315             
1 49101U 21075AC  25095.45559505  .00000064  00000+0  14308-3 0  9997
2 49101  87.8818  77.7487 0002215  95.2583 264.8799 13.12443292178753
ONEWEB-0316             
1 49102U 21075AD  25095.20035887  .00000098  00000+0  21681-3 0  9992
2 49102  87.9099  62.5303 0002010  89.9841 270.1522 13.18688203180492
ONEWEB-0317             
1 49103U 21075AE  25095.90649338 -.00002558  00000+0 -71467-2 0  9993
2 49103  87.8816  77.6729 0001540  73.0440 287.0857 13.12452304178821
ONEWEB-0318             
1 49104U 21075AF  25095.42482432 -.00000121  00000+0 -33984-3 0  9998
2 49104  87.9097  62.4714 0002056  92.0253 268.1115 13.18687176180470
